NORAD_CAT_ID,OBJECT_NAME,OBJECT_TYPE,EPOCH,MEAN_MOTION,ECCENTRICITY,INCLINATION,RA_OF_ASC_NODE,ARG_OF_PERICENTER,MEAN_ANOMALY,BSTAR,MEAN_MOTION_DOT,MEAN_MOTION_DDOT,TLE_LINE0,TLE_LINE1,TLE_LINE2,SEMIMAJOR_AXIS,PERIOD,APOGEE,PERIGEE,DECAYED
53606.0,STARLINK-4590,PAYLOAD,2024-01-16 11:14:50,15.08829499,0.0001268,53.2158,150.2497,84.2047,275.909,-4.9657e-05,-1.078e-05,0.0,0 STARLINK-4590,1 53606U 22104U   24016.46863995 -.00001078  00000-0 -49657-4 0  9995,2 53606  53.2158 150.2497 0001268  84.2047 275.9090 15.08829499 76826,6917.912,95.438,540.655,538.9,0.0
53606.0,STARLINK-4590,PAYLOAD,2024-01-16 14:25:36,15.08831997,0.0001281,53.216,149.656,66.9291,293.1836,-2.7515e-05,-7.26e-06,0.0,0 STARLINK-4590,1 53606U 22104U   24016.60111816 -.00000726  00000-0 -27515-4 0  9997,2 53606  53.2160 149.6560 0001281  66.9291 293.1836 15.08831997 77417,6917.905,95.438,540.656,538.884,0.0
53606.0,STARLINK-4590,PAYLOAD,2024-01-17 11:05:37,15.08836153,0.0001226,53.2164,145.7909,71.1597,288.9528,-1.232e-05,-4.84e-06,0.0,0 STARLINK-4590,1 53606U 22104U   24017.46223935 -.00000484  00000-0 -12320-4 0  9997,2 53606  53.2164 145.7909 0001226  71.1597 288.9528 15.08836153 76970,6917.892,95.438,540.605,538.909,0.0
53606.0,STARLINK-4590,PAYLOAD,2024-01-17 14:16:23,15.08839914,0.0001249,53.2161,145.1955,76.7194,283.3937,1.3084e-05,-8e-07,0.0,0 STARLINK-4590,1 53606U 22104U   24017.59471653 -.00000080  00000-0  13084-4 0  9992,2 53606  53.2161 145.1955 0001249  76.7194 283.3937 15.08839914 77568,6917.881,95.438,540.61,538.882,0.0
53606.0,STARLINK-4590,PAYLOAD,2024-01-17 15:51:46,15.08842227,0.0001257,53.2161,144.898,76.4398,283.6734,3.4089e-05,2.55e-06,0.0,0 STARLINK-4590,1 53606U 22104U   24017.66095459  .00000255  00000-0  34089-4 0  9997,2 53606  53.2161 144.8980 0001257  76.4398 283.6734 15.08842227 77574,6917.874,95.437,540.608,538.869,0.0
53606.0,STARLINK-4590,PAYLOAD,2024-01-18 14:07:10,15.08836448,0.0001443,53.2163,140.7352,62.2834,297.8304,0.00012915,1.768e-05,0.0,0 STARLINK-4590,1 53606U 22104U   24018.58831824  .00001768  00000-0  12915-3 0  9996,2 53606  53.2163 140.7352 0001443  62.2834 297.8304 15.08836448 77713,6917.891,95.438,540.754,538.758,0.0
53606.0,STARLINK-4590,PAYLOAD,2024-01-18 15:42:33,15.08837648,0.000154,53.2171,140.4364,56.525,303.5889,0.00019862,2.874e-05,0.0,0 STARLINK-4590,1 53606U 22104U   24018.65455678  .00002874  00000-0  19862-3 0  9990,2 53606  53.2171 140.4364 0001540  56.5250 303.5889 15.08837648 77725,6917.888,95.438,540.818,538.687,0.0
53606.0,STARLINK-4590,PAYLOAD,2024-01-19 12:22:34,15.08843702,0.0001834,53.217,136.5751,55.6333,304.4832,5.3254e-05,5.6e-06,0.0,0 STARLINK-4590,1 53606U 22104U   24019.51567765  .00000560  00000-0  53254-4 0  9991,2 53606  53.2170 136.5751 0001834  55.6333 304.4832 15.08843702 77285,6917.869,95.437,541.003,538.465,0.0
53606.0,STARLINK-4590,PAYLOAD,2024-01-19 13:57:57,15.08844181,0.0002013,53.2171,136.2782,51.7863,308.3311,6.4649e-05,7.41e-06,0.0,0 STARLINK-4590,1 53606U 22104U   24019.58191711  .00000741  00000-0  64649-4 0  9993,2 53606  53.2171 136.2782 0002013  51.7863 308.3311 15.08844181 77863,6917.868,95.437,541.125,538.34,0.0
53606.0,STARLINK-4590,PAYLOAD,2024-01-19 17:08:42,15.08854391,0.0001406,53.2169,135.6786,82.3622,277.753,0.00011382,1.525e-05,0.0,0 STARLINK-4590,1 53606U 22104U   24019.71438532  .00001525  00000-0  11382-3 0  9999,2 53606  53.2169 135.6786 0001406  82.3622 277.7530 15.08854391 77311,6917.836,95.437,540.674,538.729,0.0
53606.0,STARLINK-4590,PAYLOAD,2024-01-20 10:37:58,15.08845694,0.0001656,53.2176,132.4097,80.5623,279.5556,-3.9623e-05,-9.19e-06,0.0,0 STARLINK-4590,1 53606U 22104U   24020.44303580 -.00000919  00000-0 -39623-4 0  9992,2 53606  53.2176 132.4097 0001656  80.5623 279.5556 15.08845694 77423,6917.863,95.437,540.874,538.582,0.0
53606.0,STARLINK-4590,PAYLOAD,2024-01-20 13:48:43,15.08863822,0.0001671,53.2176,131.8177,65.9133,294.2034,0.00017124,2.44e-05,0.0,0 STARLINK-4590,1 53606U 22104U   24020.57549873  .00002440  00000-0  17124-3 0  9993,2 53606  53.2176 131.8177 0001671  65.9133 294.2034 15.08863822 78019,6917.808,95.436,540.829,538.517,0.0
53606.0,STARLINK-4590,PAYLOAD,2024-01-20 16:59:28,15.08869767,0.0001518,53.2167,131.2198,97.9796,262.1368,0.00020978,3.055e-05,0.0,0 STARLINK-4590,1 53606U 22104U   24020.70796898  .00003055  00000-0  20978-3 0  9993,2 53606  53.2167 131.2198 0001518  97.9796 262.1368 15.08869767 77462,6917.789,95.436,540.705,538.604,0.0
53606.0,STARLINK-4590,PAYLOAD,2024-01-21 13:39:31,15.08839728,0.0001506,53.217,127.3503,108.8093,251.3062,-8.8705e-05,-1.699e-05,0.0,0 STARLINK-4590,1 53606U 22104U   24021.56911574 -.00001699  00000-0 -88705-4 0  9995,2 53606  53.2170 127.3503 0001506 108.8093 251.3062 15.08839728 77590,6917.881,95.438,540.788,538.704,0.0
53606.0,STARLINK-4590,PAYLOAD,2024-01-21 16:50:17,15.08839563,0.0001502,53.217,126.7556,109.7356,250.3798,-8.4964e-05,-1.64e-05,0.0,0 STARLINK-4590,1 53606U 22104U   24021.70159566 -.00001640  00000-0 -84964-4 0  9995,2 53606  53.2170 126.7556 0001502 109.7356 250.3798 15.08839563 78187,6917.882,95.438,540.786,538.708,0.0
53606.0,STARLINK-4590,PAYLOAD,2024-01-22 07:08:46,15.08839764,0.0001879,53.2173,124.0789,110.4545,249.6649,-0.00013042,-2.363e-05,0.0,0 STARLINK-4590,1 53606U 22104U   24022.29776189 -.00002363  00000-0 -13042-3 0  9997,2 53606  53.2173 124.0789 0001879 110.4545 249.6649 15.08839764 78274,6917.881,95.438,541.046,538.446,0.0
53606.0,STARLINK-4590,PAYLOAD,2024-01-22 11:54:55,15.08844057,0.0001816,53.2169,123.1876,102.1025,258.0171,-5.5114e-05,-1.165e-05,0.0,0 STARLINK-4590,1 53606U 22104U   24022.49647722 -.00001165  00000-0 -55114-4 0  9995,2 53606  53.2169 123.1876 0001816 102.1025 258.0171 15.08844057 78307,6917.868,95.437,540.989,538.477,0.0
53606.0,STARLINK-4590,PAYLOAD,2024-01-23 11:45:42,15.08835237,0.0001605,53.2168,118.7273,92.1079,268.0097,0.00011114,1.481e-05,0.0,0 STARLINK-4590,1 53606U 22104U   24023.49007949  .00001481  00000-0  11114-3 0  9997,2 53606  53.2168 118.7273 0001605  92.1079 268.0097 15.08835237 77880,6917.895,95.438,540.87,538.65,0.0
53606.0,STARLINK-4590,PAYLOAD,2024-01-24 13:11:53,15.08841329,0.0001648,53.2171,113.9709,72.0346,288.0825,7.3743e-05,8.86e-06,0.0,0 STARLINK-4590,1 53606U 22104U   24024.54992246  .00000886  00000-0  73743-4 0  9992,2 53606  53.2171 113.9709 0001648  72.0346 288.0825 15.08841329 78618,6917.876,95.437,540.881,538.601,0.0
53606.0,STARLINK-4590,PAYLOAD,2024-01-25 13:02:40,15.08815908,0.0001783,53.2169,109.5127,64.3721,295.7455,0.00042868,6.537e-05,0.0,0 STARLINK-4590,1 53606U 22104U   24025.54352757  .00006537  00000-0  42868-3 0  9992,2 53606  53.2169 109.5127 0001783  64.3721 295.7455 15.08815908 78765,6917.954,95.439,541.053,538.586,0.0
53606.0,STARLINK-4590,PAYLOAD,2024-01-26 11:18:04,15.08841882,0.0001836,53.2168,105.3502,57.0467,303.0701,3.5663e-05,2.8e-06,0.0,0 STARLINK-4590,1 53606U 22104U   24026.47088535  .00000280  00000-0  35663-4 0  9990,2 53606  53.2168 105.3502 0001836  57.0467 303.0701 15.08841882 78330,6917.875,95.437,541.01,538.47,0.0
53606.0,STARLINK-4590,PAYLOAD,2024-01-26 12:53:27,15.08818961,0.0001758,53.2171,105.0511,70.0789,290.0393,0.00039397,5.984e-05,0.0,0 STARLINK-4590,1 53606U 22104U   24026.53712674  .00005984  00000-0  39397-3 0  9998,2 53606  53.2171 105.0511 0001758  70.0789 290.0393 15.08818961 78914,6917.945,95.439,541.026,538.594,0.0
53606.0,STARLINK-4590,PAYLOAD,2024-01-27 11:08:50,15.08847334,0.0001416,53.2178,100.8856,144.3906,215.7181,2.9587e-05,1.83e-06,0.0,0 STARLINK-4590,1 53606U 22104U   24027.46447207  .00000183  00000-0  29587-4 0  9995,2 53606  53.2178 100.8856 0001416 144.3906 215.7181 15.08847334 78480,6917.858,95.437,540.703,538.743,0.0
53606.0,STARLINK-4590,PAYLOAD,2024-01-28 04:38:06,15.08837885,9.38e-05,53.217,97.6175,105.2088,254.9008,-0.00012349,-2.252e-05,0.0,0 STARLINK-4590,1 53606U 22104U   24028.19312865 -.00002252  00000-0 -12349-3 0  9995,2 53606  53.2170  97.6175 0000938 105.2088 254.9008 15.08837885 78599,6917.887,95.438,540.401,539.103,0.0
53606.0,STARLINK-4590,PAYLOAD,2024-01-28 10:59:38,15.0883986,0.000174,53.2168,96.4354,53.5678,306.5475,-1.5675e-05,-5.38e-06,0.0,0 STARLINK-4590,1 53606U 22104U   24028.45808774 -.00000538  00000-0 -15675-4 0  9994,2 53606  53.2168  96.4354 0001740  53.5678 306.5475 15.08839860 79200,6917.881,95.438,540.95,538.542,0.0
53606.0,STARLINK-4590,PAYLOAD,2024-01-29 10:50:25,15.08827063,0.0001492,53.2187,91.9722,78.6865,281.4295,0.00023512,3.455e-05,0.0,0 STARLINK-4590,1 53606U 22104U   24029.45168418  .00003455  00000-0  23512-3 0  9996,2 53606  53.2187  91.9722 0001492  78.6865 281.4295 15.08827063 78785,6917.92,95.438,540.817,538.753,0.0
53606.0,STARLINK-4590,PAYLOAD,2024-01-30 10:41:13,15.08828424,0.000153,53.2182,87.51,99.1219,260.9947,-5.0219e-05,-1.087e-05,0.0,0 STARLINK-4590,1 53606U 22104U   24030.44530001 -.00001087  00000-0 -50219-4 0  9994,2 53606  53.2182  87.5100 0001530  99.1219 260.9947 15.08828424 78930,6917.916,95.438,540.839,538.722,0.0
53606.0,STARLINK-4590,PAYLOAD,2024-01-31 10:31:59,15.08847049,0.0001306,53.2174,83.046,96.4991,263.615,0.00011253,1.504e-05,0.0,0 STARLINK-4590,1 53606U 22104U   24031.43888515  .00001504  00000-0  11253-3 0  9996,2 53606  53.2174  83.0460 0001306  96.4991 263.6150 15.08847049 79086,6917.859,95.437,540.627,538.82,0.0
53606.0,STARLINK-4590,PAYLOAD,2024-01-31 13:42:45,15.0884853,0.0001345,53.2172,82.4486,100.664,259.4503,0.00011325,1.515e-05,0.0,0 STARLINK-4590,1 53606U 22104U   24031.57136375  .00001515  00000-0  11325-3 0  9993,2 53606  53.2172  82.4486 0001345 100.6640 259.4503 15.08848530 79673,6917.854,95.437,540.65,538.789,0.0
53606.0,STARLINK-4590,PAYLOAD,2024-02-01 11:58:11,15.08835161,0.0001437,53.2176,78.2799,87.7641,272.3515,8.8443e-05,1.12e-05,0.0,0 STARLINK-4590,1 53606U 22104U   24032.49873859  .00001120  00000-0  88443-4 0  9998,2 53606  53.2176  78.2799 0001437  87.7641 272.3515 15.08835161 79241,6917.895,95.438,540.754,538.766,0.0
